[{"OBJECT_NAME":"CALSPHERE 1","OBJECT_ID":"1964-063C","EPOCH":"2026-03-27T21:28:15.903264","MEAN_MOTION":13.76521339,"ECCENTRICITY":0.0025409,"INCLINATION":90.2179,"RA_OF_ASC_NODE":69.8664,"ARG_OF_PERICENTER":173.0763,"MEAN_ANOMALY":218.618,"EPHEMERIS_TYPE":0,"CLASSIFICATION_TYPE":"U","NORAD_CAT_ID":900,"ELEMENT_SET_NO":999,"REV_AT_EPOCH":6024,"BSTAR":0.00066008,"MEAN_MOTION_DOT":6.57e-6,"MEAN_MOTION_DDOT":0},{"OBJECT_NAME":"CALSPHERE 2","OBJECT_ID":"1964-063E","EPOCH":"2026-03-27T21:34:08.304672","MEAN_MOTION":13.52893603,"ECCENTRICITY":0.0020587,"INCLINATION":90.2298,"RA_OF_ASC_NODE":73.8568,"ARG_OF_PERICENTER":102.0806,"MEAN_ANOMALY":324.8414,"EPHEMERIS_TYPE":0,"CLASSIFICATION_TYPE":"U","NORAD_CAT_ID":902,"ELEMENT_SET_NO":999,"REV_AT_EPOCH":84527,"BSTAR":0,"MEAN_MOTION_DOT":7.9e-7,"MEAN_MOTION_DDOT":0}]
