CALSPHERE 1             
1 00900U 64063C   26086.89462851  .00000657  00000+0  66008-3 0  9993
2 00900  90.2179  69.8664 0025409 173.0763 218.6180 13.76521339 60243
CALSPHERE 2             
1 00902U 64063E   26086.89870723  .00000079  00000+0  10457-3 0  9991
2 00902  90.2298  73.8568 0020587 102.0806 324.8414 13.52893603845271
